[{"OBJECT_NAME":"SMAP","OBJECT_ID":"2015-003A","EPOCH":"2026-04-04T05:37:06.589920","MEAN_MOTION":14.63373436,"ECCENTRICITY":0.00019133,"INCLINATION":98.1307,"RA_OF_ASC_NODE":102.3668,"ARG_OF_PERICENTER":94.9392,"MEAN_ANOMALY":265.2028,"EPHEMERIS_TYPE":0,"CLASSIFICATION_TYPE":"U","NORAD_CAT_ID":40376,"ELEMENT_SET_NO":999,"REV_AT_EPOCH":59680,"BSTAR":0.00017214509,"MEAN_MOTION_DOT":8.43e-6,"MEAN_MOTION_DDOT":0},{"OBJECT_NAME":"GONETS-M 11","OBJECT_ID":"2015-020A","EPOCH":"2026-04-04T06:32:15.044640","MEAN_MOTION":12.42873747,"ECCENTRICITY":0.00163266,"INCLINATION":82.4813,"RA_OF_ASC_NODE":77.0444,"ARG_OF_PERICENTER":159.0728,"MEAN_ANOMALY":201.1023,"EPHEMERIS_TYPE":0,"CLASSIFICATION_TYPE":"U","NORAD_CAT_ID":40552,"ELEMENT_SET_NO":999,"REV_AT_EPOCH":49955,"BSTAR":-0.00023765633,"MEAN_MOTION_DOT":-2.3e-7,"MEAN_MOTION_DDOT":0},{"OBJECT_NAME":"GONETS-M 12","OBJECT_ID":"2015-020B","EPOCH":"2026-04-04T05:55:20.313696","MEAN_MOTION":12.42888852,"ECCENTRICITY":0.0015647,"INCLINATION":82.4845,"RA_OF_ASC_NODE":78.1652,"ARG_OF_PERICENTER":143.8889,"MEAN_ANOMALY":216.3251,"EPHEMERIS_TYPE":0,"CLASSIFICATION_TYPE":"U","NORAD_CAT_ID":40553,"ELEMENT_SET_NO":999,"REV_AT_EPOCH":49954,"BSTAR":-0.00062391669,"MEAN_MOTION_DOT":-7.6e-7,"MEAN_MOTION_DDOT":0},{"OBJECT_NAME":"GONETS-M 13","OBJECT_ID":"2015-020C","EPOCH":"2026-04-04T07:11:16.749888","MEAN_MOTION":12.42867673,"ECCENTRICITY":0.00145243,"INCLINATION":82.4809,"RA_OF_ASC_NODE":76.7684,"ARG_OF_PERICENTER":128.8616,"MEAN_ANOMALY":231.3762,"EPHEMERIS_TYPE":0,"CLASSIFICATION_TYPE":"U","NORAD_CAT_ID":40554,"ELEMENT_SET_NO":999,"REV_AT_EPOCH":49952,"BSTAR":-0.00044482423,"MEAN_MOTION_DOT":-5.2e-7,"MEAN_MOTION_DDOT":0},{"OBJECT_NAME":"DMC3-FM1","OBJECT_ID":"2015-032A","EPOCH":"2026-04-04T06:07:16.797792","MEAN_MOTION":14.85657347,"ECCENTRICITY":0.00043221,"INCLINATION":97.6568,"RA_OF_ASC_NODE":322.2886,"ARG_OF_PERICENTER":309.002,"MEAN_ANOMALY":51.081,"EPHEMERIS_TYPE":0,"CLASSIFICATION_TYPE":"U","NORAD_CAT_ID":40715,"ELEMENT_SET_NO":999,"REV_AT_EPOCH":57893,"BSTAR":0.00019556416,"MEAN_MOTION_DOT":1.643e-5,"MEAN_MOTION_DDOT":0},{"OBJECT_NAME":"DMC3-FM2","OBJECT_ID":"2015-032B","EPOCH":"2026-04-04T06:39:21.183264","MEAN_MOTION":14.8566139,"ECCENTRICITY":0.00049569,"INCLINATION":97.6625,"RA_OF_ASC_NODE":323.8333,"ARG_OF_PERICENTER":315.6728,"MEAN_ANOMALY":44.409,"EPHEMERIS_TYPE":0,"CLASSIFICATION_TYPE":"U","NORAD_CAT_ID":40716,"ELEMENT_SET_NO":999,"REV_AT_EPOCH":57893,"BSTAR":0.00018344089,"MEAN_MOTION_DOT":1.538e-5,"MEAN_MOTION_DDOT":0},{"OBJECT_NAME":"DMC3-FM3","OBJECT_ID":"2015-032C","EPOCH":"2026-04-04T05:35:36.691584","MEAN_MOTION":14.85657431,"ECCENTRICITY":0.00042687,"INCLINATION":97.6677,"RA_OF_ASC_NODE":325.4959,"ARG_OF_PERICENTER":316.5082,"MEAN_ANOMALY":43.5797,"EPHEMERIS_TYPE":0,"CLASSIFICATION_TYPE":"U","NORAD_CAT_ID":40717,"ELEMENT_SET_NO":999,"REV_AT_EPOCH":57893,"BSTAR":8.2814114e-5,"MEAN_MOTION_DOT":6.66e-6,"MEAN_MOTION_DDOT":0},{"OBJECT_NAME":"CARBONITE 1 (CBNT-1)","OBJECT_ID":"2015-032D","EPOCH":"2026-04-04T06:08:57.338880","MEAN_MOTION":14.83348332,"ECCENTRICITY":0.00146814,"INCLINATION":97.6481,"RA_OF_ASC_NODE":275.4375,"ARG_OF_PERICENTER":171.6188,"MEAN_ANOMALY":188.5275,"EPHEMERIS_TYPE":0,"CLASSIFICATION_TYPE":"U","NORAD_CAT_ID":40718,"ELEMENT_SET_NO":999,"REV_AT_EPOCH":57838,"BSTAR":0.00040923276,"MEAN_MOTION_DOT":3.309e-5,"MEAN_MOTION_DDOT":0},{"OBJECT_NAME":"DEORBITSAIL","OBJECT_ID":"2015-032E","EPOCH":"2026-04-04T01:48:45.529344","MEAN_MOTION":15.02832789,"ECCENTRICITY":0.00142473,"INCLINATION":97.5992,"RA_OF_ASC_NODE":312.3277,"ARG_OF_PERICENTER":124.2818,"MEAN_ANOMALY":235.9759,"EPHEMERIS_TYPE":0,"CLASSIFICATION_TYPE":"U","NORAD_CAT_ID":40719,"ELEMENT_SET_NO":999,"REV_AT_EPOCH":58011,"BSTAR":0.0012933472,"MEAN_MOTION_DOT":0.00017334,"MEAN_MOTION_DDOT":0},{"OBJECT_NAME":"2015-049G","OBJECT_ID":"2015-049G","EPOCH":"2026-04-04T06:18:33.180192","MEAN_MOTION":15.61165345,"ECCENTRICITY":0.00073848,"INCLINATION":97.4655,"RA_OF_ASC_NODE":134.1679,"ARG_OF_PERICENTER":124.3302,"MEAN_ANOMALY":235.8655,"EPHEMERIS_TYPE":0,"CLASSIFICATION_TYPE":"U","NORAD_CAT_ID":40905,"ELEMENT_SET_NO":999,"REV_AT_EPOCH":58489,"BSTAR":0.00068908814,"MEAN_MOTION_DOT":0.00058466,"MEAN_MOTION_DDOT":0},{"OBJECT_NAME":"LILACSAT-2","OBJECT_ID":"2015-049K","EPOCH":"2026-04-04T07:09:54.835776","MEAN_MOTION":15.49051323,"ECCENTRICITY":0.00084335,"INCLINATION":97.4752,"RA_OF_ASC_NODE":128.4238,"ARG_OF_PERICENTER":148.899,"MEAN_ANOMALY":211.2761,"EPHEMERIS_TYPE":0,"CLASSIFICATION_TYPE":"U","NORAD_CAT_ID":40908,"ELEMENT_SET_NO":999,"REV_AT_EPOCH":58430,"BSTAR":0.00054162448,"MEAN_MOTION_DOT":0.00029371,"MEAN_MOTION_DDOT":0},{"OBJECT_NAME":"COSMOS 2507 (RODNIK-S 13)","OBJECT_ID":"2015-050A","EPOCH":"2026-04-04T06:11:09.415968","MEAN_MOTION":12.4292422,"ECCENTRICITY":0.00106309,"INCLINATION":82.4887,"RA_OF_ASC_NODE":125.7056,"ARG_OF_PERICENTER":144.7418,"MEAN_ANOMALY":215.4367,"EPHEMERIS_TYPE":0,"CLASSIFICATION_TYPE":"U","NORAD_CAT_ID":40920,"ELEMENT_SET_NO":999,"REV_AT_EPOCH":47767,"BSTAR":0.00012263856,"MEAN_MOTION_DOT":2.7e-7,"MEAN_MOTION_DDOT":0},{"OBJECT_NAME":"COSMOS 2508 (RODNIK-S 14)","OBJECT_ID":"2015-050B","EPOCH":"2026-04-04T05:05:15.336384","MEAN_MOTION":12.42911487,"ECCENTRICITY":0.00142208,"INCLINATION":82.4837,"RA_OF_ASC_NODE":124.2674,"ARG_OF_PERICENTER":179.3816,"MEAN_ANOMALY":180.7283,"EPHEMERIS_TYPE":0,"CLASSIFICATION_TYPE":"U","NORAD_CAT_ID":40921,"ELEMENT_SET_NO":999,"REV_AT_EPOCH":47765,"BSTAR":-0.00021651108,"MEAN_MOTION_DOT":-2.0e-7,"MEAN_MOTION_DDOT":0},{"OBJECT_NAME":"COSMOS 2509 (RODNIK-S 15)","OBJECT_ID":"2015-050C","EPOCH":"2026-04-04T07:27:49.713120","MEAN_MOTION":12.42881348,"ECCENTRICITY":0.00141447,"INCLINATION":82.4846,"RA_OF_ASC_NODE":124.3004,"ARG_OF_PERICENTER":196.8079,"MEAN_ANOMALY":163.2534,"EPHEMERIS_TYPE":0,"CLASSIFICATION_TYPE":"U","NORAD_CAT_ID":40922,"ELEMENT_SET_NO":999,"REV_AT_EPOCH":47770,"BSTAR":1.499847e-5,"MEAN_MOTION_DOT":1.2e-7,"MEAN_MOTION_DDOT":0},{"OBJECT_NAME":"LQSAT","OBJECT_ID":"2015-057A","EPOCH":"2026-04-04T06:44:42.809856","MEAN_MOTION":14.7668718,"ECCENTRICITY":0.00176751,"INCLINATION":97.667,"RA_OF_ASC_NODE":91.3281,"ARG_OF_PERICENTER":147.7234,"MEAN_ANOMALY":212.5062,"EPHEMERIS_TYPE":0,"CLASSIFICATION_TYPE":"U","NORAD_CAT_ID":40958,"ELEMENT_SET_NO":999,"REV_AT_EPOCH":56440,"BSTAR":0.00023966122,"MEAN_MOTION_DOT":1.633e-5,"MEAN_MOTION_DDOT":0},{"OBJECT_NAME":"LINGQIAO VIDEO A","OBJECT_ID":"2015-057B","EPOCH":"2026-04-04T06:20:38.774688","MEAN_MOTION":14.77289279,"ECCENTRICITY":0.00174842,"INCLINATION":97.6616,"RA_OF_ASC_NODE":92.7248,"ARG_OF_PERICENTER":145.1449,"MEAN_ANOMALY":215.091,"EPHEMERIS_TYPE":0,"CLASSIFICATION_TYPE":"U","NORAD_CAT_ID":40959,"ELEMENT_SET_NO":999,"REV_AT_EPOCH":56449,"BSTAR":0.00017660951,"MEAN_MOTION_DOT":1.208e-5,"MEAN_MOTION_DDOT":0}]
