SMAP                    
1 40376U 15003A   26094.23410405  .00000843  00000+0  17215-3 0  9992
2 40376  98.1307 102.3668 0001913  94.9392 265.2028 14.63373436596809
GONETS-M 11             
1 40552U 15020A   26094.27239635 -.00000023  00000+0 -23766-3 0  9995
2 40552  82.4813  77.0444 0016326 159.0728 201.1023 12.42873747499556
GONETS-M 12             
1 40553U 15020B   26094.24676289 -.00000076  00000+0 -62392-3 0  9999
2 40553  82.4845  78.1652 0015647 143.8889 216.3251 12.42888852499542
GONETS-M 13             
1 40554U 15020C   26094.29949942 -.00000052  00000+0 -44482-3 0  9998
2 40554  82.4809  76.7684 0014524 128.8616 231.3762 12.42867673499526
DMC3-FM1                
1 40715U 15032A   26094.25505553  .00001643  00000+0  19556-3 0  9991
2 40715  97.6568 322.2886 0004322 309.0020  51.0810 14.85657347578933
DMC3-FM2                
1 40716U 15032B   26094.27732851  .00001538  00000+0  18344-3 0  9994
2 40716  97.6625 323.8333 0004956 315.6728  44.4090 14.85661390578932
DMC3-FM3                
1 40717U 15032C   26094.23306356  .00000666  00000+0  82814-4 0  9993
2 40717  97.6677 325.4959 0004268 316.5082  43.5797 14.85657431578936
CARBONITE 1 (CBNT-1)    
1 40718U 15032D   26094.25621920  .00003309  00000+0  40923-3 0  9994
2 40718  97.6481 275.4375 0014681 171.6188 188.5275 14.83348332578388
DEORBITSAIL             
1 40719U 15032E   26094.07552696  .00017334  00000+0  12933-2 0  9990
2 40719  97.5992 312.3277 0014247 124.2818 235.9759 15.02832789580113
2015-049G               
1 40905U 15049G   26094.26288403  .00058466  00000+0  68909-3 0  9994
2 40905  97.4655 134.1679 0007384 124.3302 235.8655 15.61165345584899
LILACSAT-2              
1 40908U 15049K   26094.29855134  .00029371  00000+0  54162-3 0  9990
2 40908  97.4752 128.4238 0008433 148.8990 211.2761 15.49051323584305
COSMOS 2507 (RODNIK-S *)
1 40920U 15050A   26094.25774787  .00000027  00000+0  12264-3 0  9990
2 40920  82.4887 125.7056 0010630 144.7418 215.4367 12.42924220477676
COSMOS 2508 (RODNIK-S *)
1 40921U 15050B   26094.21198306 -.00000020  00000+0 -21651-3 0  9999
2 40921  82.4837 124.2674 0014220 179.3816 180.7283 12.42911487477657
COSMOS 2509 (RODNIK-S *)
1 40922U 15050C   26094.31099205  .00000012  00000+0  14998-4 0  9995
2 40922  82.4846 124.3004 0014144 196.8079 163.2534 12.42881348477709
LQSAT                   
1 40958U 15057A   26094.28105104  .00001633  00000+0  23966-3 0  9997
2 40958  97.6670  91.3281 0017675 147.7234 212.5062 14.76687180564406
LINGQIAO VIDEO A        
1 40959U 15057B   26094.26433767  .00001208  00000+0  17661-3 0  9998
2 40959  97.6616  92.7248 0017484 145.1449 215.0910 14.77289279564490
